STARLINK-1325_new
1 15554C 20025Z   21326.15539723  .00003266  00000-0  21887-3 0  3261
2 15554  53.0530 288.0526 0001843  66.9838  53.5512 15.06391013    19
STARLINK-1325_old
1 25554C 20025Z   21325.12675425 -.00004238  00000-0 -28407-3 0  3253
2 25554  53.0532 292.6702 0001843  66.7286 232.3870 15.06390156    14
